#dP2022  9 22  0  0  0.00000000      96 __u+U ITR14 FIT  IAC
## 2228 345600.00000000   900.00000000 59844 0.0000000000000
+  128   C01C02C03C04C05C06C07C08C09C10C11C12C13C14C16C19C20
+        C21C22C23C24C25C26C27C28C29C30C32C33C34C35C36C37C38
+        C39C40C41C42C43C44C45C46C59C60E01E02E03E04E05E07E08
+        E09E10E11E12E13E14E15E18E19E21E24E25E26E27E30E31E33
+        E34E36G01G02G03G04G05G06G07G08G09G10G11G12G13G14G15
+        G16G17G18G19G20G21G22G23G24G25G26G27G28G29G30G31G32
+        J02J03J07R01R02R03R04R05R06R07R08R09R10R11R12R13R14
+        R15R17R18R19R20R21R23R24R25  0  0  0  0  0  0  0  0
++        17 16 17 16 19  9  9  9  9  9  8  8  8  9 10  7  7
++         7  7  7  7  7  7  7  7  7  6  7  7  7  7  7  7  8
++         8  8  7  7  7  7  7  7 17 16  4  4  4  4  4  4  4
++         4  4  4  4  4  4  4  5  4  4  5  4  5  4  4  4  5
++         4  4  4  4  3  3  4  3  4  4  3  4  3  3  4  4  4
++         4  4  4  4  4  4  3  4  4  3  3  4  4  3  4  3  3
++         8  8 17  7  6  6  6  6 15  6  6  6 15  6  6  7  6
++         6  6  6  7  7  5 15  6 11  0  0  0  0  0  0  0  0
%c M  cc GPS ccc cccc cccc cccc cccc ccccc ccccc ccccc ccccc
%c cc cc ccc ccc cccc cccc cccc cccc ccccc ccccc ccccc ccccc
%f  0.0000000  0.000000000  0.00000000000  0.000000000000000
%f  0.0000000  0.000000000  0.00000000000  0.000000000000000
%i    0    0    0    0      0      0      0      0         0
%i    0    0    0    0      0      0      0      0         0
/* INFORMATION & ANALYSIS CENTER (IAC)            RAPID DATA
/* S/V CLOCKS ARE ALIGNED TO GNSS TIME                      
/* G:C1WC2W R:C1PC2P E:C1XC5X C:C2IC6I J:C1CC2S             
/* PCV:IGS14_2218 OL/AL:FES2004  NONE     YN ORB:CoN CLK:CoN
*  2022 09 22 19 45  0.00000000
PC01 -34320.666496  24514.365509     26.076798    684.542192
PC02   4245.432544  41843.057967   -741.498711    502.331937
PC03 -14792.667323  39450.232883   -405.859468   -337.195812
PC04 -39598.084665  14484.784248    447.589222     53.025100
PC05  21881.079169  35987.728430  -1254.131246 999999.999999
PC06  -1745.699389  32688.748608 -26440.063048    898.571104
PC07 -15134.961190  26895.413955  28715.417992   -177.316667
PC08 -15652.599714  38990.117342  -4595.540575    477.923475
PC09   5561.881638  36762.889047 -19030.604489   -855.842866
PC10  -6275.532305  27672.633113  31387.722139     93.413975
PC11  20662.961383  15398.460196 -10692.502516   -393.559184
PC12  13046.930039  23764.682034   6708.939659   -508.888614
PC13  -9750.151269  39498.305745 -11514.120400     87.638974
PC14  24655.159063   4512.345134 -12315.177676    670.316958
PC16  -4622.527644  29976.112199 -28986.756646    135.787701
PC19 -27592.238074   2098.831086   3553.974780   -713.483390
PC20 -19051.563552  -9408.866908  18079.807175    732.793423
PC21  -1586.486013  16070.862512 -22750.244936   -451.090817
PC22 -20560.488793  12914.493843 -13745.375441   -739.112193
PC23  15716.859424 -20723.524833  10116.679655   -209.374141
PC24   8651.285421  17536.248251  19915.673642   -268.607071
PC25  17596.730940  -3903.859245  21294.247332   -674.415906
PC26  -3409.803343  26565.167882   7893.972761    -11.254358
PC27  -6002.504211 -23304.295336 -14153.715518     24.914410
PC28   9696.304761 -13045.778562 -22678.985862     16.005393
PC29 -20776.983766  -5050.610150  17923.507231     17.086187
PC30 -19149.856229 -20216.924043   1931.178614      0.062646
PC32   1598.880812 -16114.487613  22733.702203   -791.438946
PC33  27588.632733  -2201.405992  -3638.388836   -729.194083
PC34  19594.077031  19625.510389  -3046.816864      0.682732
PC35 -10446.086611  12241.586475  22788.719192      8.864788
PC36 -17571.257598   2875.120670 -21460.284663   -335.873702
PC37   4940.594979 -26609.940325  -6728.565087   -278.424231
PC38 -19221.963545  37479.561114   3449.037189     26.075807
PC39  -7786.450575  26457.724983 -31822.596334     -0.487307
PC40 -21590.134836  20292.065981  29907.518428     -4.648120
PC41  20928.478543 -12816.598972  13328.478112   -103.506768
PC42  18112.144623  10016.064853 -18691.946089   -342.694473
PC43  21030.342562   5765.918357 -17412.852294     15.680158
PC44   6601.524060  23063.083909  14225.718129     58.529796
PC45 -15524.859057  21021.368432  -9816.183249     -0.977659
PC46  -9708.320506 -15922.859866 -20740.060641     -1.597092
PC59 -32326.954835  27077.261069   -723.071429     -0.310102
PC60   7305.440612  41535.876890    521.053293     -0.592179
PE01  16317.140824 -22295.996673 -10606.746213   -533.116178
PE02 -16172.508570  22335.959079  10783.933278    326.315328
PE03  -6692.520023  15682.886152 -24203.562131   -602.504304
PE04 -14363.322489 -18886.656698  17696.538940  -1121.126414
PE05 -24296.583253   3170.566208 -16609.684537   -141.475054
PE07  27490.028804  10979.379532   -512.331396   -707.466558
PE08  14537.114072  18742.961803 -17719.417570   -603.191452
PE09 -27476.916405 -10970.747857    631.002629   -667.831017
PE10 -12882.552402 -22666.490379  13991.549655   -478.656203
PE11 -16020.764167 -13020.789003  21201.324533   2109.849233
PE12  -7872.778356 -28076.489869   5102.685950   -183.460738
PE13  15846.849734  13847.769103 -20816.836395    430.607162
PE14   1992.043865 -20155.037445 -22240.094873      7.139659
PE15   7796.826206  28135.003585  -4896.863435    718.714609
PE18  14770.220138  20083.735210  11734.697195   -945.612571
PE19   9496.291777 -14305.128169  24111.709330  -4460.104579
PE21  25070.119019 -14209.032296   6769.599929   -759.256454
PE24 -19573.138910  -3637.024534 -21916.571514   -851.402611
PE25 -25106.048926  14018.750474  -7019.953370   -588.343400
PE26  14423.610868  -9400.856349 -24074.878973  -1643.543401
PE27  20180.815123   2631.704242  21501.260565   -398.289775
PE30   2587.170137  18260.440236  23154.502330   -858.001213
PE31  -3467.903021 -17743.392150 -23421.743426   -504.138883
PE33   4802.887008 -25734.448055 -13810.464487   -453.986198
PE34  -4633.624395  25860.953851  13645.833509     -5.832853
PE36 -14525.442129   8431.167777  24374.280229   -435.323583
PG01 -13185.448783   9262.614128  20728.430294    279.453818
PG02  14623.977152  -2249.729280 -21439.542029   -645.118184
PG03 -23341.714741  11382.899791   5161.755451   -355.086762
PG04 -20247.742792   2608.604490 -17041.228268   -114.800219
PG05  21634.568868  -2476.170267 -15475.863096    -97.654501
PG06   7038.451510  24100.042813  -8492.957651 999999.999999
PG07  -6498.457633  22793.848205 -11048.709420    305.388902
PG08 -24689.606667  -4381.308325   9242.296465    -85.730386
PG09 -10199.351706  11994.613369 -21472.886288   -292.751068
PG10   2856.518080 -17850.915979  19498.772035     -4.424554
PG11  12151.129237  16188.699239 -17214.058733    -18.632226
PG12  24109.491376  -9396.835985   5479.887066   -282.500996
PG13  22993.779018  13141.249983   2901.282527    392.520252
PG14  -5344.300150  18557.500393  18194.459020   -101.566204
PG15  25051.863495   1671.806212   8664.817340    -26.856884
PG16 -18297.089602  -4977.595174 -19057.756878   -524.799117
PG17   4262.673142  17756.666506  19702.782495    661.762384
PG18   6087.006423 -23542.284624 -10526.598143     39.646858
PG19  14355.387780  18792.408401  12103.792758    214.201010
PG20  12887.587538   9093.899011 -21341.309815    484.274846
PG21 -15715.698356   -891.512921  22064.688605    159.100712
PG22 -16265.432870 -18450.978778  10666.217116    332.578348
PG23  12913.911812 -19560.461850  12357.390085     -0.326578
PG24  14943.465367  -5057.335943  21015.104188    126.329375
PG25  19145.373864 -17510.235582  -5237.521070    374.828865
PG26 -10600.428591 -11763.030711 -21418.380225    229.622870
PG27 -23274.343044 -13094.312614  -2178.813061    208.446144
PG28   3690.327733  15246.426066  21964.793606    336.373962
PG29  11781.121396  -9940.035915 -21684.765808   -553.773982
PG30    827.752250  26395.804089   -726.168488   -537.101661
PG31  -7766.987495 -23325.391246  -9569.555054   -194.285086
PG32  -8387.587810 -17994.049043  17884.910822   -241.169701
PJ02 -29797.866685  29855.864274   6509.783706     -5.583130
PJ03 -25418.267722  23810.262121  28837.717899     -1.915345
PJ07 -25390.606012  33667.061995    -36.826068     -0.026996
PR01  17506.997990  -8052.556319  16713.065702     15.146257
PR02  -2369.772658 -10883.957818  22987.805965    -22.736970
PR03 -19500.052671  -7426.029990  14753.003420     64.191788
PR04 -25471.576308    -17.899178  -1487.862084    158.541281
PR05 -17600.755434   7369.712454 -16938.664690    100.062248
PR06   3823.790818  10908.862014 -22752.468989    -71.218490
PR07  19983.070814   7140.377559 -14083.194059     41.404187
PR08  25434.635126   -220.368524   1739.589741    -67.293795
PR09  -4866.297364  21363.657283  13016.091501     78.136177
PR10   5812.612232  11157.973315  22199.421878    -86.262452
PR11  14738.630760  -6640.376690  19751.586113     26.668147
PR12  14662.697962 -20401.040048   4397.937970     21.527885
PR13   6166.151882 -21775.531183 -11776.422551    -27.061534
PR14  -6932.580547  -9728.516403 -22522.126505     24.249548
PR15 -15150.129357   7373.492873 -19123.966224     93.588485
PR17 -14498.887464 -19527.771399   7614.015016    563.180005
PR18 -13825.199913  -6488.414374  20458.080520     43.678903
PR19  -6982.397703   8775.458020  22911.614160   -204.638754
PR20   5765.484614  22401.353032  10726.269660    -78.862291
PR21  14677.256394  18789.314528  -9119.102004   -335.811730
PR23   3594.615504 -13603.077725 -21281.897696    -55.886215
PR24  -6628.892015 -22499.060532  -9979.310604    116.096274
PR25  13695.324711   6137.591046 -20598.339417 999999.999999
EOF
